     2.10           N: GPS NAV DATA     G:GPS               RINEX VERSION / TYPE
SthRinex220811      SouthGnss           09-Sep-22 01:36     PGM / RUN BY / DATE
     2.049e-08   2.235e-08  -5.364e-07   8.941e-07          ION ALPHA 
     1.413e+05  -9.830e+04  -1.507e+06   2.163e+06          ION BETA 
    18                                                      LEAP SECONDS        
                                                            END OF HEADER       
 8 22  2  2 22  0  0.0-5.462067201734E-05-1.477928890381E-12 0.000000000000E+00 
    3.000000000000E+00 7.356250000000E+01 4.228390415147E-09 1.787852342221E+00 
    4.066154360771E-06 7.238090853207E-03 1.246295869350E-05 5.153719924927E+03 
    3.384000000000E+05 1.676380634308E-08-2.741115749948E+00 1.844018697739E-07 
    9.651989774402E-01 1.426562500000E+02 9.318045441423E-02-7.805682280855E-09 
   -3.014411276615E-10 0.000000000000E+00 2.195000000000E+03 0.000000000000E+00 
    0.000000000000E+00 0.000000000000E+00 5.122274160385E-09 3.000000000000E+00 
    3.384000000000E+05 0.000000000000E+00 0.000000000000E+00 0.000000000000E+00 
22 22  2  2 22  0  0.0 2.077897079289E-04 5.570655048359E-12 0.000000000000E+00 
    5.500000000000E+01-5.190625000000E+01 4.109456889660E-09 1.558891491528E+00 
   -2.697110176086E-06 1.282783143688E-02 1.258775591850E-05 5.153663030624E+03 
    3.384000000000E+05-2.235174179077E-07 5.031977402742E-01-2.793967723846E-07 
    9.615851235944E-01 1.379687500000E+02-1.875484754428E+00-7.853184259503E-09 
    3.596578383355E-10 0.000000000000E+00 2.195000000000E+03 0.000000000000E+00 
    0.000000000000E+00 0.000000000000E+00-9.778887033463E-09 5.500000000000E+01 
    3.384000000000E+05 0.000000000000E+00 0.000000000000E+00 0.000000000000E+00 
18 22  2  3  0  0  0.0 2.482715062797E-04-7.844391802792E-12 0.000000000000E+00 
    4.800000000000E+01 9.940625000000E+01 4.564833000760E-09 7.572151226721E-01 
    5.122274160385E-06 2.094437135383E-03 3.643333911896E-06 5.153622192383E+03 
    3.456000000000E+05-3.539025783539E-08-1.653642299262E+00-6.146728992462E-08 
    9.703118746643E-01 3.098125000000E+02 3.104389129788E+00-8.381420548380E-09 
    2.160804291886E-10 0.000000000000E+00 2.195000000000E+03 0.000000000000E+00 
    0.000000000000E+00 0.000000000000E+00-8.381903171539E-09 3.040000000000E+02 
    3.456000000000E+05 0.000000000000E+00 0.000000000000E+00 0.000000000000E+00 
24 22  2  3  0  0  0.0 2.761031500995E-04-1.250555214938E-12 0.000000000000E+00 
    1.700000000000E+01 4.309375000000E+01 5.428440402046E-09 8.576726962990E-01 
    2.216547727585E-06 1.231575978454E-02 7.638707756996E-06 5.153693185806E+03 
    3.456000000000E+05-7.078051567078E-08 1.391341049614E+00 9.872019290924E-08 
    9.340889302219E-01 2.185000000000E+02 8.057378522271E-01-8.649288849027E-09 
    5.225217651289E-10 0.000000000000E+00 2.195000000000E+03 0.000000000000E+00 
    0.000000000000E+00 0.000000000000E+00 2.328306436539E-09 1.700000000000E+01 
    3.456000000000E+05 0.000000000000E+00 0.000000000000E+00 0.000000000000E+00 
23 22  2  3  0  0  0.0 4.994217306376E-06-3.637978807092E-12 0.000000000000E+00 
    8.500000000000E+01-9.559375000000E+01 4.590905515356E-09-1.400091672581E-01 
   -5.127862095833E-06 1.982975983992E-03 2.982094883919E-06 5.153699592590E+03 
    3.456000000000E+05 1.341104507446E-07-6.535871159097E-01 2.607703208923E-08 
    9.673907549537E-01 3.283437500000E+02 2.949214246291E+00-8.417136321799E-09 
   -4.378753821244E-10 0.000000000000E+00 2.195000000000E+03 0.000000000000E+00 
    0.000000000000E+00 0.000000000000E+00-8.381903171539E-09 5.970000000000E+02 
    3.456000000000E+05 0.000000000000E+00 0.000000000000E+00 0.000000000000E+00 
22 22  2  3  0  0  0.0 2.078302204609E-04 5.570655048359E-12 0.000000000000E+00 
    5.600000000000E+01-6.062500000000E+01 3.963736534108E-09 2.609136610247E+00 
   -3.082677721977E-06 1.282874203753E-02 1.268647611141E-05 5.153660909653E+03 
    3.456000000000E+05 1.396983861923E-07 5.031431588007E-01-9.499490261078E-08 
    9.615892417088E-01 1.331875000000E+02-1.875546123841E+00-7.475668534458E-09 
    3.107272287506E-10 0.000000000000E+00 2.195000000000E+03 0.000000000000E+00 
    0.000000000000E+00 0.000000000000E+00-9.778887033463E-09 5.600000000000E+01 
    3.456000000000E+05 0.000000000000E+00 0.000000000000E+00 0.000000000000E+00 
32 22  2  3  0  0  0.0-6.096018478274E-05-6.480149750132E-12 0.000000000000E+00 
    7.400000000000E+01-7.562500000000E+01 4.069455223430E-09-2.839637495283E+00 
   -3.889203071594E-06 5.518557154574E-03 1.251325011253E-05 5.153778163910E+03 
    3.456000000000E+05-1.862645149231E-09 4.131613762297E-01-2.607703208923E-08 
    9.583310173964E-01 1.370937500000E+02-2.363824999211E+00-7.657104663430E-09 
    2.603679882289E-10 0.000000000000E+00 2.195000000000E+03 0.000000000000E+00 
    0.000000000000E+00 0.000000000000E+00 4.656612873077E-10 7.400000000000E+01 
    3.456000000000E+05 0.000000000000E+00 0.000000000000E+00 0.000000000000E+00 
10 22  2  3  0  0  0.0-3.099623136222E-04-1.011812855722E-11 0.000000000000E+00 
    3.900000000000E+01-9.915625000000E+01 4.355538568521E-09-1.465037192177E+00 
   -5.215406417847E-06 7.498293532990E-03 3.067776560783E-06 5.153678863525E+03 
    3.456000000000E+05 1.899898052216E-07-6.287951032000E-01-1.657754182816E-07 
    9.723597975914E-01 3.266875000000E+02-2.522755878063E+00-8.185340952306E-09 
   -3.596578383355E-10 0.000000000000E+00 2.195000000000E+03 0.000000000000E+00 
    0.000000000000E+00 0.000000000000E+00 2.328306436539E-09 3.900000000000E+01 
    3.456000000000E+05 0.000000000000E+00 0.000000000000E+00 0.000000000000E+00 
27 22  2  3  0  0  0.0 1.014196313918E-04 1.818989403546E-11 0.000000000000E+00 
    6.300000000000E+01 6.221875000000E+01 3.941949912322E-09 2.783149823396E+00 
    3.190711140633E-06 1.014618074987E-02 1.284293830395E-05 5.153656967163E+03 
    3.456000000000E+05-9.126961231232E-08-2.721859926883E+00-1.452863216400E-07 
    9.738884899304E-01 1.379687500000E+02 6.334191297750E-01-7.523884828575E-09 
   -1.685784505406E-10 0.000000000000E+00 2.195000000000E+03 0.000000000000E+00 
    0.000000000000E+00 0.000000000000E+00 1.396983861923E-09 6.300000000000E+01 
    3.456000000000E+05 0.000000000000E+00 0.000000000000E+00 0.000000000000E+00 
15 22  2  3  0  0  0.0-8.678250014782E-05 2.842170943040E-12 0.000000000000E+00 
    2.900000000000E+01-1.066562500000E+02 4.790913846506E-09 1.833092987269E+00 
   -5.567446351051E-06 1.392103254329E-02 1.228228211403E-05 5.153746311188E+03 
    3.456000000000E+05-1.881271600723E-07 2.963406147704E-01-2.663582563400E-07 
    9.303531260621E-01 1.299062500000E+02 1.073891586112E+00-8.200698734876E-09 
    6.785996949726E-11 0.000000000000E+00 2.195000000000E+03 0.000000000000E+00 
    0.000000000000E+00 0.000000000000E+00-1.071020960808E-08 2.900000000000E+01 
    3.456000000000E+05 0.000000000000E+00 0.000000000000E+00 0.000000000000E+00 
 8 22  2  3  0  0  0.0-5.463138222694E-05-1.477928890381E-12 0.000000000000E+00 
    5.000000000000E+00 5.943750000000E+01 4.131243511446E-09 2.837799629837E+00 
    3.127381205559E-06 7.236791891046E-03 1.242570579052E-05 5.153723575592E+03 
    3.456000000000E+05-9.685754776001E-08-2.741172203957E+00-1.862645149231E-09 
    9.651978261237E-01 1.436875000000E+02 9.338271307911E-02-7.643532669530E-09 
   -1.871506527187E-10 0.000000000000E+00 2.195000000000E+03 0.000000000000E+00 
    0.000000000000E+00 0.000000000000E+00 5.122274160385E-09 5.000000000000E+00 
    3.456000000000E+05 0.000000000000E+00 0.000000000000E+00 0.000000000000E+00 
21 22  2  3  0  0  0.0 1.573534682393E-04 6.821210263297E-13 0.000000000000E+00 
    4.900000000000E+01 1.273125000000E+02 4.665194324069E-09 2.918332208022E+00 
    6.679445505142E-06 2.457202353980E-02 3.760680556297E-06 5.153593334198E+03 
    3.456000000000E+05 2.849847078323E-07-1.752244983465E+00 4.395842552185E-07 
    9.591308005620E-01 3.020312500000E+02-1.013296060740E+00-8.091051310478E-09 
    2.296524230881E-10 0.000000000000E+00 2.195000000000E+03 0.000000000000E+00 
    0.000000000000E+00 0.000000000000E+00-1.024454832077E-08 4.900000000000E+01 
    3.456000000000E+05 0.000000000000E+00 0.000000000000E+00 0.000000000000E+00 
 8 22  2  2 23 59 28.0-5.463045090437E-05-1.477928890381E-12 0.000000000000E+00 
    4.100000000000E+01 5.943750000000E+01 4.131243511446E-09 2.833132164835E+00 
    3.127381205559E-06 7.236787700094E-03 1.242570579052E-05 5.153723569870E+03 
    3.455680000000E+05-9.685754776001E-08-2.741171943557E+00 0.000000000000E+00 
    9.651978334383E-01 1.436875000000E+02 9.338286229676E-02-7.643532669530E-09 
   -1.867934949846E-10 0.000000000000E+00 2.195000000000E+03 0.000000000000E+00 
    0.000000000000E+00 0.000000000000E+00 5.122274160385E-09 4.100000000000E+01 
    3.455680000000E+05 0.000000000000E+00 0.000000000000E+00 0.000000000000E+00 
 1 22  2  3  0  0  0.0 4.412373527884E-04-9.549694368616E-12 0.000000000000E+00 
    8.700000000000E+01 9.812500000000E+01 4.237676516237E-09 5.577059889102E-01 
    5.321577191353E-06 1.133173657581E-02 3.516674041748E-06 5.153669641495E+03 
    3.456000000000E+05-8.754432201385E-08-1.661651273965E+00 1.452863216400E-07 
    9.865216375003E-01 3.235625000000E+02 8.826195223144E-01-8.339990251213E-09 
    1.503634060966E-10 0.000000000000E+00 2.195000000000E+03 0.000000000000E+00 
    0.000000000000E+00 0.000000000000E+00 5.122274160385E-09 8.700000000000E+01 
    3.456000000000E+05 0.000000000000E+00 0.000000000000E+00 0.000000000000E+00 
